{
  "type": "FeatureCollection",
  "features": [
    {
      "type": "Feature",
      "properties": {
        "norad_id": 36036,
        "name": "SMOS",
        "group": "resource",
        "lat": 70.38256297840927,
        "lon": 25.99779398765829,
        "alt_km": 751.8092649376222,
        "timestamp": "2025-12-22T11:33:20.086134+00:00",
        "meta_object_name": "SMOS",
        "meta_object_id": "2009-059A",
        "meta_epoch": "2025-12-22T02:43:02.760960",
        "meta_mean_motion": 14.39749322,
        "meta_eccentricity": 0.0001068,
        "meta_inclination": 98.4381,
        "meta_ra_of_asc_node": 181.0229,
        "meta_arg_of_pericenter": 83.0241,
        "meta_mean_anomaly": 277.1069,
        "meta_ephemeris_type": 0,
        "meta_classification_type": "U",
        "meta_norad_cat_id": 36036,
        "meta_element_set_no": 999,
        "meta_rev_at_epoch": 84797,
        "meta_bstar": 0.00012861,
        "meta_mean_motion_dot": 3.59e-06,
        "meta_mean_motion_ddot": 0,
        "tle_line1": "1 36036U 09059A   25356.11322640  .00000359  00000+0  12861-3 0  9998",
        "tle_line2": "2 36036  98.4381 181.0229 0001068  83.0241 277.1069 14.39749322847970"
      },
      "geometry": {
        "type": "Point",
        "coordinates": [
          25.99779398765829,
          70.38256297840927
        ]
      }
    },
    {
      "type": "Feature",
      "properties": {
        "norad_id": 36110,
        "name": "YAOGAN-7",
        "group": "resource",
        "lat": -2.818727339370183,
        "lon": 57.80517377946315,
        "alt_km": 632.9524813431044,
        "timestamp": "2025-12-22T11:33:20.086144+00:00",
        "meta_object_name": "YAOGAN-7",
        "meta_object_id": "2009-069A",
        "meta_epoch": "2025-12-22T04:13:43.451904",
        "meta_mean_motion": 14.77745547,
        "meta_eccentricity": 0.0023389,
        "meta_inclination": 98.0296,
        "meta_ra_of_asc_node": 237.8993,
        "meta_arg_of_pericenter": 249.0784,
        "meta_mean_anomaly": 110.7922,
        "meta_ephemeris_type": 0,
        "meta_classification_type": "U",
        "meta_norad_cat_id": 36110,
        "meta_element_set_no": 999,
        "meta_rev_at_epoch": 86348,
        "meta_bstar": 8.7982e-05,
        "meta_mean_motion_dot": 5.8e-06,
        "meta_mean_motion_ddot": 0,
        "tle_line1": "1 36110U 09069A   25356.17619736  .00000580  00000+0  87982-4 0  9996",
        "tle_line2": "2 36110  98.0296 237.8993 0023389 249.0784 110.7922 14.77745547863489"
      },
      "geometry": {
        "type": "Point",
        "coordinates": [
          57.80517377946315,
          -2.818727339370183
        ]
      }
    },
    {
      "type": "Feature",
      "properties": {
        "norad_id": 36605,
        "name": "TANDEM-X",
        "group": "resource",
        "lat": 76.23018070449385,
        "lon": -30.526681528875816,
        "alt_km": 499.95815932343794,
        "timestamp": "2025-12-22T11:33:20.086154+00:00",
        "meta_object_name": "TANDEM-X",
        "meta_object_id": "2010-030A",
        "meta_epoch": "2025-12-21T11:29:57.943104",
        "meta_mean_motion": 15.19156092,
        "meta_eccentricity": 0.0001799,
        "meta_inclination": 97.4444,
        "meta_ra_of_asc_node": 0.7318,
        "meta_arg_of_pericenter": 77.8908,
        "meta_mean_anomaly": 282.2528,
        "meta_ephemeris_type": 0,
        "meta_classification_type": "U",
        "meta_norad_cat_id": 36605,
        "meta_element_set_no": 999,
        "meta_rev_at_epoch": 85966,
        "meta_bstar": 3.7921e-05,
        "meta_mean_motion_dot": 7.29e-06,
        "meta_mean_motion_ddot": 0,
        "tle_line1": "1 36605U 10030A   25355.47914286  .00000729  00000+0  37921-4 0  9998",
        "tle_line2": "2 36605  97.4444   0.7318 0001799  77.8908 282.2528 15.19156092859660"
      },
      "geometry": {
        "type": "Point",
        "coordinates": [
          -30.526681528875816,
          76.23018070449385
        ]
      }
    },
    {
      "type": "Feature",
      "properties": {
        "norad_id": 36795,
        "name": "CARTOSAT-2B",
        "group": "resource",
        "lat": 34.466559982585196,
        "lon": -129.41694259558295,
        "alt_km": 632.1938433318601,
        "timestamp": "2025-12-22T11:33:20.086164+00:00",
        "meta_object_name": "CARTOSAT-2B",
        "meta_object_id": "2010-035A",
        "meta_epoch": "2025-12-22T04:24:24.676416",
        "meta_mean_motion": 14.78738699,
        "meta_eccentricity": 0.0012731,
        "meta_inclination": 97.7842,
        "meta_ra_of_asc_node": 44.907,
        "meta_arg_of_pericenter": 48.8772,
        "meta_mean_anomaly": 311.3536,
        "meta_ephemeris_type": 0,
        "meta_classification_type": "U",
        "meta_norad_cat_id": 36795,
        "meta_element_set_no": 999,
        "meta_rev_at_epoch": 83369,
        "meta_bstar": 0.0001329,
        "meta_mean_motion_dot": 9.27e-06,
        "meta_mean_motion_ddot": 0,
        "tle_line1": "1 36795U 10035A   25356.18361894  .00000927  00000+0  13290-3 0  9995",
        "tle_line2": "2 36795  97.7842  44.9070 0012731  48.8772 311.3536 14.78738699833696"
      },
      "geometry": {
        "type": "Point",
        "coordinates": [
          -129.41694259558295,
          34.466559982585196
        ]
      }
    },
    {
      "type": "Feature",
      "properties": {
        "norad_id": 36834,
        "name": "YAOGAN-10",
        "group": "resource",
        "lat": 69.99675040684428,
        "lon": -6.232783133265161,
        "alt_km": 607.010446515168,
        "timestamp": "2025-12-22T11:33:20.086175+00:00",
        "meta_object_name": "YAOGAN-10",
        "meta_object_id": "2010-038A",
        "meta_epoch": "2025-12-22T05:20:26.935872",
        "meta_mean_motion": 14.84637833,
        "meta_eccentricity": 0.0001338,
        "meta_inclination": 97.9129,
        "meta_ra_of_asc_node": 15.9719,
        "meta_arg_of_pericenter": 77.9439,
        "meta_mean_anomaly": 50.5083,
        "meta_ephemeris_type": 0,
        "meta_classification_type": "U",
        "meta_norad_cat_id": 36834,
        "meta_element_set_no": 999,
        "meta_rev_at_epoch": 83094,
        "meta_bstar": 0.00012533,
        "meta_mean_motion_dot": 1.006e-05,
        "meta_mean_motion_ddot": 0,
        "tle_line1": "1 36834U 10038A   25356.22253398  .00001006  00000+0  12533-3 0  9994",
        "tle_line2": "2 36834  97.9129  15.9719 0001338  77.9439  50.5083 14.84637833830941"
      },
      "geometry": {
        "type": "Point",
        "coordinates": [
          -6.232783133265161,
          69.99675040684428
        ]
      }
    },
    {
      "type": "Feature",
      "properties": {
        "norad_id": 37216,
        "name": "COSMO-SKYMED 4",
        "group": "resource",
        "lat": -81.9022403730136,
        "lon": -79.09902910882847,
        "alt_km": 630.8719873630744,
        "timestamp": "2025-12-22T11:33:20.086185+00:00",
        "meta_object_name": "COSMO-SKYMED 4",
        "meta_object_id": "2010-060A",
        "meta_epoch": "2025-12-22T03:52:05.977920",
        "meta_mean_motion": 14.82154756,
        "meta_eccentricity": 0.0001421,
        "meta_inclination": 97.8799,
        "meta_ra_of_asc_node": 177.3422,
        "meta_arg_of_pericenter": 80.8075,
        "meta_mean_anomaly": 279.3299,
        "meta_ephemeris_type": 0,
        "meta_classification_type": "U",
        "meta_norad_cat_id": 37216,
        "meta_element_set_no": 999,
        "meta_rev_at_epoch": 81834,
        "meta_bstar": 2.7072e-05,
        "meta_mean_motion_dot": 1.63e-06,
        "meta_mean_motion_ddot": 0,
        "tle_line1": "1 37216U 10060A   25356.16118030  .00000163  00000+0  27072-4 0  9998",
        "tle_line2": "2 37216  97.8799 177.3422 0001421  80.8075 279.3299 14.82154756818340"
      },
      "geometry": {
        "type": "Point",
        "coordinates": [
          -79.09902910882847,
          -81.9022403730136
        ]
      }
    },
    {
      "type": "Feature",
      "properties": {
        "norad_id": 37387,
        "name": "RESOURCESAT-2",
        "group": "resource",
        "lat": -80.69473838206122,
        "lon": 130.7116882921268,
        "alt_km": 828.2418006698554,
        "timestamp": "2025-12-22T11:33:20.086196+00:00",
        "meta_object_name": "RESOURCESAT-2",
        "meta_object_id": "2011-015A",
        "meta_epoch": "2025-12-22T03:31:04.353024",
        "meta_mean_motion": 14.21600785,
        "meta_eccentricity": 0.0005982,
        "meta_inclination": 98.7864,
        "meta_ra_of_asc_node": 59.6557,
        "meta_arg_of_pericenter": 17.1108,
        "meta_mean_anomaly": 343.027,
        "meta_ephemeris_type": 0,
        "meta_classification_type": "U",
        "meta_norad_cat_id": 37387,
        "meta_element_set_no": 999,
        "meta_rev_at_epoch": 76102,
        "meta_bstar": 7.7186e-05,
        "meta_mean_motion_dot": 1.25e-06,
        "meta_mean_motion_ddot": 0,
        "tle_line1": "1 37387U 11015A   25356.14657816  .00000125  00000+0  77186-4 0  9995",
        "tle_line2": "2 37387  98.7864  59.6557 0005982  17.1108 343.0270 14.21600785761020"
      },
      "geometry": {
        "type": "Point",
        "coordinates": [
          130.7116882921268,
          -80.69473838206122
        ]
      }
    }
  ]
}